0 COSMOS 2251 DEB
1 33821U 93036BN  13282.68376891  .00001672  00000-0  22861-3 0  3815
2 33821 074.0586 327.7418 0146529 116.1903 022.6620 14.72199685249756
0 COSMOS 2251 DEB
1 33821U 93036BN  13283.83458456  .00002551  00000-0  34613-3 0  3827
2 33821 074.0595 325.5066 0146538 113.6751 001.8633 14.72202095249926
0 COSMOS 2251 DEB
1 33821U 93036BN  13286.13856262  .00002244  00000-0  30503-3 0  3845
2 33821 074.0591 321.0286 0146457 108.5422 332.8499 14.72210036250265
0 COSMOS 2251 DEB
1 33821U 93036BN  13287.15869266  .00002545  00000-0  34533-3 0  3858
2 33821 074.0588 319.0459 0146446 106.2666 339.5248 14.72211925250414
0 COSMOS 2251 DEB
1 33821U 93036BN  13289.54311734  .00003226  00000-0  43616-3 0  3876
2 33821 074.0581 314.4111 0146339 100.9266 017.0381 14.72228963250763
0 COSMOS 2251 DEB
1 33821U 93036BN  13291.15901766  .00002903  00000-0  39303-3 0  3886
2 33821 074.0579 311.2696 0146354 097.3464 301.3829 14.72236583251000
0 COSMOS 2251 DEB
1 33821U 93036BN  13292.47105431  .00003132  00000-0  42348-3 0  3896
2 33821 074.0579 308.7187 0146322 094.4090 055.3022 14.72241632251196
0 COSMOS 2251 DEB
1 33821U 93036BN  13293.49187531  .00003509  00000-0  47378-3 0  3908
2 33821 074.0581 306.7341 0146326 092.1433 065.7521 14.72246137251340
0 COSMOS 2251 DEB
1 33821U 93036BN  13294.50369425  .00003688  00000-0  49772-3 0  3914
2 33821 074.0582 304.7670 0146318 089.8909 028.5128 14.72251280251497
0 COSMOS 2251 DEB
1 33821U 93036BN  13295.72669160  .00003948  00000-0  53236-3 0  3928
2 33821 074.0584 302.3895 0146305 087.1607 030.5776 14.72258510251679
